{
  "type": "FeatureCollection",
  "features": [
    {
      "type": "Feature",
      "properties": {
        "norad_id": 45344,
        "name": "BEIDOU-3 G2 (C60)",
        "group": "gnss",
        "lat": 0.4107427149334495,
        "lon": 52.89868002882857,
        "alt_km": 35790.02859040741,
        "timestamp": "2025-12-09T16:56:36.818749+00:00",
        "meta_object_name": "BEIDOU-3 G2 (C60)",
        "meta_object_id": "2020-017A",
        "meta_epoch": "2025-12-08T17:24:33.367680",
        "meta_mean_motion": 1.00273181,
        "meta_eccentricity": 0.00043587,
        "meta_inclination": 2.49,
        "meta_ra_of_asc_node": 43.8378,
        "meta_arg_of_pericenter": 265.5358,
        "meta_mean_anomaly": 109.5017,
        "meta_ephemeris_type": 0,
        "meta_classification_type": "U",
        "meta_norad_cat_id": 45344,
        "meta_element_set_no": 999,
        "meta_rev_at_epoch": 2135,
        "meta_bstar": 0,
        "meta_mean_motion_dot": -1.39e-06,
        "meta_mean_motion_ddot": 0,
        "tle_line1": "1 45344U 20017A   25342.72538620 -.00000139  00000+0  00000+0 0  9991",
        "tle_line2": "2 45344   2.4900  43.8378 0004358 265.5358 109.5017  1.00273181 21351"
      },
      "geometry": {
        "type": "Point",
        "coordinates": [
          52.89868002882857,
          0.4107427149334495
        ]
      }
    },
    {
      "type": "Feature",
      "properties": {
        "norad_id": 45358,
        "name": "COSMOS 2545 (760)",
        "group": "gnss",
        "lat": 42.01323767962773,
        "lon": -15.44497763359051,
        "alt_km": 19153.358917738704,
        "timestamp": "2025-12-09T16:56:36.818768+00:00",
        "meta_object_name": "COSMOS 2545 (760)",
        "meta_object_id": "2020-018A",
        "meta_epoch": "2025-12-09T04:10:52.430880",
        "meta_mean_motion": 2.13102242,
        "meta_eccentricity": 0.0011894,
        "meta_inclination": 64.4718,
        "meta_ra_of_asc_node": 319.095,
        "meta_arg_of_pericenter": 248.7657,
        "meta_mean_anomaly": 111.1032,
        "meta_ephemeris_type": 0,
        "meta_classification_type": "U",
        "meta_norad_cat_id": 45358,
        "meta_element_set_no": 999,
        "meta_rev_at_epoch": 4461,
        "meta_bstar": 0,
        "meta_mean_motion_dot": -5e-07,
        "meta_mean_motion_ddot": 0,
        "tle_line1": "1 45358U 20018A   25343.17421795 -.00000050  00000+0  00000+0 0  9993",
        "tle_line2": "2 45358  64.4718 319.0950 0011894 248.7657 111.1032  2.13102242 44617"
      },
      "geometry": {
        "type": "Point",
        "coordinates": [
          -15.44497763359051,
          42.01323767962773
        ]
      }
    },
    {
      "type": "Feature",
      "properties": {
        "norad_id": 45807,
        "name": "BEIDOU-3 G3 (C61)",
        "group": "gnss",
        "lat": 0.5950646319653545,
        "lon": 83.42416839826879,
        "alt_km": 35776.50082847911,
        "timestamp": "2025-12-09T16:56:36.818782+00:00",
        "meta_object_name": "BEIDOU-3 G3 (C61)",
        "meta_object_id": "2020-040A",
        "meta_epoch": "2025-12-08T17:33:17.532288",
        "meta_mean_motion": 1.00275813,
        "meta_eccentricity": 0.00060306,
        "meta_inclination": 1.9816,
        "meta_ra_of_asc_node": 66.5886,
        "meta_arg_of_pericenter": 306.262,
        "meta_mean_anomaly": 78.7159,
        "meta_ephemeris_type": 0,
        "meta_classification_type": "U",
        "meta_norad_cat_id": 45807,
        "meta_element_set_no": 999,
        "meta_rev_at_epoch": 2016,
        "meta_bstar": 0,
        "meta_mean_motion_dot": -3.52e-06,
        "meta_mean_motion_ddot": 0,
        "tle_line1": "1 45807U 20040A   25342.73145292 -.00000352  00000+0  00000+0 0  9998",
        "tle_line2": "2 45807   1.9816  66.5886 0006030 306.2620  78.7159  1.00275813 20161"
      },
      "geometry": {
        "type": "Point",
        "coordinates": [
          83.42416839826879,
          0.5950646319653545
        ]
      }
    },
    {
      "type": "Feature",
      "properties": {
        "norad_id": 45854,
        "name": "GPS BIII-3  (PRN 23)",
        "group": "gnss",
        "lat": -36.47060450347178,
        "lon": 7.087852258129068,
        "alt_km": 20244.034926629538,
        "timestamp": "2025-12-09T16:56:36.818793+00:00",
        "meta_object_name": "GPS BIII-3  (PRN 23)",
        "meta_object_id": "2020-041A",
        "meta_epoch": "2025-12-09T06:59:18.994848",
        "meta_mean_motion": 2.0056182,
        "meta_eccentricity": 0.0060408,
        "meta_inclination": 56.5448,
        "meta_ra_of_asc_node": 36.3195,
        "meta_arg_of_pericenter": 203.3087,
        "meta_mean_anomaly": 171.1637,
        "meta_ephemeris_type": 0,
        "meta_classification_type": "U",
        "meta_norad_cat_id": 45854,
        "meta_element_set_no": 999,
        "meta_rev_at_epoch": 4023,
        "meta_bstar": 0,
        "meta_mean_motion_dot": -8.4e-07,
        "meta_mean_motion_ddot": 0,
        "tle_line1": "1 45854U 20041A   25343.29119207 -.00000084  00000+0  00000+0 0  9992",
        "tle_line2": "2 45854  56.5448  36.3195 0060408 203.3087 171.1637  2.00561820 40237"
      },
      "geometry": {
        "type": "Point",
        "coordinates": [
          7.087852258129068,
          -36.47060450347178
        ]
      }
    },
    {
      "type": "Feature",
      "properties": {
        "norad_id": 46114,
        "name": "GALAXY 30 (WAAS/PRN 135)",
        "group": "gnss",
        "lat": -0.019198392630478782,
        "lon": -152.1821547258708,
        "alt_km": 35779.62973976137,
        "timestamp": "2025-12-09T16:56:36.818805+00:00",
        "meta_object_name": "GALAXY 30 (WAAS/PRN 135)",
        "meta_object_id": "2020-056C",
        "meta_epoch": "2025-12-09T09:54:15.136416",
        "meta_mean_motion": 1.00271447,
        "meta_eccentricity": 0.0002386,
        "meta_inclination": 0.0167,
        "meta_ra_of_asc_node": 3.1394,
        "meta_arg_of_pericenter": 254.3856,
        "meta_mean_anomaly": 204.4379,
        "meta_ephemeris_type": 0,
        "meta_classification_type": "U",
        "meta_norad_cat_id": 46114,
        "meta_element_set_no": 999,
        "meta_rev_at_epoch": 1939,
        "meta_bstar": 0,
        "meta_mean_motion_dot": 3.9e-07,
        "meta_mean_motion_ddot": 0,
        "tle_line1": "1 46114U 20056C   25343.41267519  .00000039  00000+0  00000+0 0  9991",
        "tle_line2": "2 46114   0.0167   3.1394 0002386 254.3856 204.4379  1.00271447 19391"
      },
      "geometry": {
        "type": "Point",
        "coordinates": [
          -152.1821547258708,
          -0.019198392630478782
        ]
      }
    },
    {
      "type": "Feature",
      "properties": {
        "norad_id": 46805,
        "name": "COSMOS 2547 (705K)",
        "group": "gnss",
        "lat": -63.861562193721696,
        "lon": 94.3744463635341,
        "alt_km": 19123.108684899013,
        "timestamp": "2025-12-09T16:56:36.818816+00:00",
        "meta_object_name": "COSMOS 2547 (705K)",
        "meta_object_id": "2020-075A",
        "meta_epoch": "2025-12-08T21:25:56.196192",
        "meta_mean_motion": 2.13099854,
        "meta_eccentricity": 0.00063847,
        "meta_inclination": 64.5958,
        "meta_ra_of_asc_node": 198.8249,
        "meta_arg_of_pericenter": 229.7163,
        "meta_mean_anomaly": 130.3027,
        "meta_ephemeris_type": 0,
        "meta_classification_type": "U",
        "meta_norad_cat_id": 46805,
        "meta_element_set_no": 999,
        "meta_rev_at_epoch": 3985,
        "meta_bstar": 0,
        "meta_mean_motion_dot": 4.5e-07,
        "meta_mean_motion_ddot": 0,
        "tle_line1": "1 46805U 20075A   25342.89301153  .00000045  00000+0  00000+0 0  9990",
        "tle_line2": "2 46805  64.5958 198.8249 0006384 229.7163 130.3027  2.13099854 39856"
      },
      "geometry": {
        "type": "Point",
        "coordinates": [
          94.3744463635341,
          -63.861562193721696
        ]
      }
    },
    {
      "type": "Feature",
      "properties": {
        "norad_id": 46826,
        "name": "GPS BIII-4  (PRN 14)",
        "group": "gnss",
        "lat": -51.22418476782357,
        "lon": 153.79137383032227,
        "alt_km": 20162.858524691455,
        "timestamp": "2025-12-09T16:56:36.818827+00:00",
        "meta_object_name": "GPS BIII-4  (PRN 14)",
        "meta_object_id": "2020-078A",
        "meta_epoch": "2025-12-08T14:24:03.317760",
        "meta_mean_motion": 2.00566768,
        "meta_eccentricity": 0.0064574,
        "meta_inclination": 54.0161,
        "meta_ra_of_asc_node": 218.509,
        "meta_arg_of_pericenter": 203.354,
        "meta_mean_anomaly": 2.942,
        "meta_ephemeris_type": 0,
        "meta_classification_type": "U",
        "meta_norad_cat_id": 46826,
        "meta_element_set_no": 999,
        "meta_rev_at_epoch": 3768,
        "meta_bstar": 0,
        "meta_mean_motion_dot": 1.6e-07,
        "meta_mean_motion_ddot": 0,
        "tle_line1": "1 46826U 20078A   25342.60003840  .00000016  00000+0  00000+0 0  9995",
        "tle_line2": "2 46826  54.0161 218.5090 0064574 203.3540   2.9420  2.00566768 37684"
      },
      "geometry": {
        "type": "Point",
        "coordinates": [
          153.79137383032227,
          -51.22418476782357
        ]
      }
    }
  ]
}